{"type": "FeatureCollection", "features": [ {"type": "Feature", "properties": {"norad_id": 39547, "name": "COSMOS 2251 DEB", "group": "cosmos-2251-debris", "lat": 12.389475725347609, "lon": -1.4034883900354347, "alt_km": 551.3973205951588, "timestamp": "2025-12-24T03:53:30.045490+00:00", "meta": {"OBJECT_NAME": "COSMOS 2251 DEB", "OBJECT_ID": "1993-036BUD", "EPOCH": "2025-12-22T17:14:01.053600", "MEAN_MOTION": 15.0398717, "ECCENTRICITY": 0.0005758, "INCLINATION": 74.0015, "RA_OF_ASC_NODE": 357.9412, "ARG_OF_PERICENTER": 356.7563, "MEAN_ANOMALY": 120.4456, "EPHEMERIS_TYPE": 0, "CLASSIFICATION_TYPE": "U", "NORAD_CAT_ID": 39547, "ELEMENT_SET_NO": 999, "REV_AT_EPOCH": 64175, "BSTAR": 0.0032003008, "MEAN_MOTION_DOT": 0.00044473, "MEAN_MOTION_DDOT": 0}, "tle": {"line1": "1 39547U 93036BUD 25356.71806775  .00044473  00000+0  32003-2 0  9992", "line2": "2 39547  74.0015 357.9412 0005758 356.7563 120.4456 15.03987170641754"}}, "geometry": {"type": "Point", "coordinates": [-1.4034883900354347, 12.389475725347609]}}, {"type": "Feature", "properties": {"norad_id": 39553, "name": "COSMOS 2251 DEB", "group": "cosmos-2251-debris", "lat": -54.30420621274956, "lon": 153.7257490327445, "alt_km": 1032.817935790984, "timestamp": "2025-12-24T03:53:30.045500+00:00", "meta": {"OBJECT_NAME": "COSMOS 2251 DEB", "OBJECT_ID": "1993-036BUK", "EPOCH": "2025-12-19T04:26:08.787552", "MEAN_MOTION": 13.99893274, "ECCENTRICITY": 0.02023146, "INCLINATION": 74.0301, "RA_OF_ASC_NODE": 318.8543, "ARG_OF_PERICENTER": 93.0274, "MEAN_ANOMALY": 269.4029, "EPHEMERIS_TYPE": 0, "CLASSIFICATION_TYPE": "U", "NORAD_CAT_ID": 39553, "ELEMENT_SET_NO": 999, "REV_AT_EPOCH": 75707, "BSTAR": 0.00037697212, "MEAN_MOTION_DOT": 6.38e-06, "MEAN_MOTION_DDOT": 0}, "tle": {"line1": "1 39553U 93036BUK 25353.18482393  .00000638  00000+0  37697-3 0  9993", "line2": "2 39553  74.0301 318.8543 0202314  93.0274 269.4029 13.99893274757074"}}, "geometry": {"type": "Point", "coordinates": [153.7257490327445, -54.30420621274956]}}, {"type": "Feature", "properties": {"norad_id": 39554, "name": "COSMOS 2251 DEB", "group": "cosmos-2251-debris", "lat": 13.567326936122168, "lon": 57.00378102778723, "alt_km": 531.1583168179604, "timestamp": "2025-12-24T03:53:30.045510+00:00", "meta": {"OBJECT_NAME": "COSMOS 2251 DEB", "OBJECT_ID": "1993-036BUL", "EPOCH": "2025-12-10T06:12:03.924864", "MEAN_MOTION": 15.10130993, "ECCENTRICITY": 0.0002993, "INCLINATION": 74.0187, "RA_OF_ASC_NODE": 269.7383, "ARG_OF_PERICENTER": 74.7531, "MEAN_ANOMALY": 81.5927, "EPHEMERIS_TYPE": 0, "CLASSIFICATION_TYPE": "U", "NORAD_CAT_ID": 39554, "ELEMENT_SET_NO": 999, "REV_AT_EPOCH": 64347, "BSTAR": 0.0046896, "MEAN_MOTION_DOT": 0.000773, "MEAN_MOTION_DDOT": 0}, "tle": {"line1": "1 39554U 93036BUL 25344.25837876  .00077300  00000+0  46896-2 0  9992", "line2": "2 39554  74.0187 269.7383 0002993  74.7531  81.5927 15.10130993643471"}}, "geometry": {"type": "Point", "coordinates": [57.00378102778723, 13.567326936122168]}}, {"type": "Feature", "properties": {"norad_id": 39583, "name": "COSMOS 2251 DEB", "group": "cosmos-2251-debris", "lat": -73.05662879359333, "lon": 154.16313843190827, "alt_km": 649.9927813290378, "timestamp": "2025-12-24T03:53:30.045521+00:00", "meta": {"OBJECT_NAME": "COSMOS 2251 DEB", "OBJECT_ID": "1993-036BUN", "EPOCH": "2025-12-22T07:53:12.048288", "MEAN_MOTION": 14.60596779, "ECCENTRICITY": 0.0136989, "INCLINATION": 73.9314, "RA_OF_ASC_NODE": 228.7915, "ARG_OF_PERICENTER": 340.2609, "MEAN_ANOMALY": 19.3281, "EPHEMERIS_TYPE": 0, "CLASSIFICATION_TYPE": "U", "NORAD_CAT_ID": 39583, "ELEMENT_SET_NO": 999, "REV_AT_EPOCH": 61919, "BSTAR": 0.0015693487, "MEAN_MOTION_DOT": 8.689e-05, "MEAN_MOTION_DDOT": 0}, "tle": {"line1": "1 39583U 93036BUN 25356.32861167  .00008689  00000+0  15693-2 0  9990", "line2": "2 39583  73.9314 228.7915 0136989 340.2609  19.3281 14.60596779619195"}}, "geometry": {"type": "Point", "coordinates": [154.16313843190827, -73.05662879359333]}}, {"type": "Feature", "properties": {"norad_id": 39585, "name": "COSMOS 2251 DEB", "group": "cosmos-2251-debris", "lat": 24.225618489812028, "lon": -73.02515621842466, "alt_km": 651.049541619821, "timestamp": "2025-12-24T03:53:30.045531+00:00", "meta": {"OBJECT_NAME": "COSMOS 2251 DEB", "OBJECT_ID": "1993-036BUQ", "EPOCH": "2025-12-17T13:45:47.587680", "MEAN_MOTION": 14.58681164, "ECCENTRICITY": 0.00655713, "INCLINATION": 74.0421, "RA_OF_ASC_NODE": 292.1145, "ARG_OF_PERICENTER": 51.6529, "MEAN_ANOMALY": 309.0503, "EPHEMERIS_TYPE": 0, "CLASSIFICATION_TYPE": "U", "NORAD_CAT_ID": 39585, "ELEMENT_SET_NO": 999, "REV_AT_EPOCH": 62591, "BSTAR": 0.00024435975, "MEAN_MOTION_DOT": 1.143e-05, "MEAN_MOTION_DDOT": 0}, "tle": {"line1": "1 39585U 93036BUQ 25351.57346745  .00001143  00000+0  24436-3 0  9998", "line2": "2 39585  74.0421 292.1145 0065571  51.6529 309.0503 14.58681164625913"}}, "geometry": {"type": "Point", "coordinates": [-73.02515621842466, 24.225618489812028]}}, {"type": "Feature", "properties": {"norad_id": 39586, "name": "COSMOS 2251 DEB", "group": "cosmos-2251-debris", "lat": 72.71138898179704, "lon": -85.12775280806547, "alt_km": 830.2921879571823, "timestamp": "2025-12-24T03:53:30.045541+00:00", "meta": {"OBJECT_NAME": "COSMOS 2251 DEB", "OBJECT_ID": "1993-036BUR", "EPOCH": "2025-12-15T23:50:08.053728", "MEAN_MOTION": 14.21232237, "ECCENTRICITY": 0.01008868, "INCLINATION": 74.0082, "RA_OF_ASC_NODE": 222.4068, "ARG_OF_PERICENTER": 356.2296, "MEAN_ANOMALY": 66.1426, "EPHEMERIS_TYPE": 0, "CLASSIFICATION_TYPE": "U", "NORAD_CAT_ID": 39586, "ELEMENT_SET_NO": 999, "REV_AT_EPOCH": 61018, "BSTAR": 0.00043436803, "MEAN_MOTION_DOT": 9.7e-06, "MEAN_MOTION_DDOT": 0}, "tle": {"line1": "1 39586U 93036BUR 25349.99314877  .00000970  00000+0  43437-3 0  9992", "line2": "2 39586  74.0082 222.4068 0100886 356.2296  66.1426 14.21232237610182"}}, "geometry": {"type": "Point", "coordinates": [-85.12775280806547, 72.71138898179704]}}, {"type": "Feature", "properties": {"norad_id": 39591, "name": "COSMOS 2251 DEB", "group": "cosmos-2251-debris", "lat": 72.63149656374344, "lon": -20.801384323317887, "alt_km": 755.771523136541, "timestamp": "2025-12-24T03:53:30.045552+00:00", "meta": {"OBJECT_NAME": "COSMOS 2251 DEB", "OBJECT_ID": "1993-036BUW", "EPOCH": "2025-12-22T08:41:25.179936", "MEAN_MOTION": 14.41830308, "ECCENTRICITY": 0.00294833, "INCLINATION": 74.0192, "RA_OF_ASC_NODE": 228.9144, "ARG_OF_PERICENTER": 340.036, "MEAN_ANOMALY": 136.9414, "EPHEMERIS_TYPE": 0, "CLASSIFICATION_TYPE": "U", "NORAD_CAT_ID": 39591, "ELEMENT_SET_NO": 999, "REV_AT_EPOCH": 61915, "BSTAR": 0.00024689328, "MEAN_MOTION_DOT": 7.85e-06, "MEAN_MOTION_DDOT": 0}, "tle": {"line1": "1 39591U 93036BUW 25356.36209699  .00000785  00000+0  24689-3 0  9994", "line2": "2 39591  74.0192 228.9144 0029483 340.0360 136.9414 14.41830308619156"}}, "geometry": {"type": "Point", "coordinates": [-20.801384323317887, 72.63149656374344]}}, {"type": "Feature", "properties": {"norad_id": 40218, "name": "COSMOS 2251 DEB", "group": "cosmos-2251-debris", "lat": -17.339129083527247, "lon": -137.46463901614123, "alt_km": 747.6988605655661, "timestamp": "2025-12-24T03:53:30.045562+00:00", "meta": {"OBJECT_NAME": "COSMOS 2251 DEB", "OBJECT_ID": "1993-036BUX", "EPOCH": "2025-12-14T10:48:31.251744", "MEAN_MOTION": 14.41597705, "ECCENTRICITY": 0.00168728, "INCLINATION": 74.0298, "RA_OF_ASC_NODE": 245.6562, "ARG_OF_PERICENTER": 328.6, "MEAN_ANOMALY": 31.4147, "EPHEMERIS_TYPE": 0, "CLASSIFICATION_TYPE": "U", "NORAD_CAT_ID": 40218, "ELEMENT_SET_NO": 999, "REV_AT_EPOCH": 58886, "BSTAR": 0.00046023204, "MEAN_MOTION_DOT": 1.474e-05, "MEAN_MOTION_DDOT": 0}, "tle": {"line1": "1 40218U 93036BUX 25348.45036171  .00001474  00000+0  46023-3 0  9998", "line2": "2 40218  74.0298 245.6562 0016872 328.6000  31.4147 14.41597705588868"}}, "geometry": {"type": "Point", "coordinates": [-137.46463901614123, -17.339129083527247]}}, {"type": "Feature", "properties": {"norad_id": 40223, "name": "COSMOS 2251 DEB", "group": "cosmos-2251-debris", "lat": 2.8115311132508958, "lon": 66.00715414901624, "alt_km": 554.8027445707548, "timestamp": "2025-12-24T03:53:30.045572+00:00", "meta": {"OBJECT_NAME": "COSMOS 2251 DEB", "OBJECT_ID": "1993-036BVC", "EPOCH": "2025-12-21T12:06:26.690112", "MEAN_MOTION": 15.04482505, "ECCENTRICITY": 0.00157052, "INCLINATION": 73.9371, "RA_OF_ASC_NODE": 70.6668, "ARG_OF_PERICENTER": 278.3258, "MEAN_ANOMALY": 95.1407, "EPHEMERIS_TYPE": 0, "CLASSIFICATION_TYPE": "U", "NORAD_CAT_ID": 40223, "ELEMENT_SET_NO": 999, "REV_AT_EPOCH": 59506, "BSTAR": 0.0032560994, "MEAN_MOTION_DOT": 0.00045964, "MEAN_MOTION_DDOT": 0}, "tle": {"line1": "1 40223U 93036BVC 25355.50447558  .00045964  00000+0  32561-2 0  9996", "line2": "2 40223  73.9371  70.6668 0015705 278.3258  95.1407 15.04482505595064"}}, "geometry": {"type": "Point", "coordinates": [66.00715414901624, 2.8115311132508958]}}, {"type": "Feature", "properties": {"norad_id": 40228, "name": "COSMOS 2251 DEB", "group": "cosmos-2251-debris", "lat": -25.92032311589415, "lon": 67.40069183892693, "alt_km": 761.0678709589401, "timestamp": "2025-12-24T03:53:30.045582+00:00", "meta": {"OBJECT_NAME": "COSMOS 2251 DEB", "OBJECT_ID": "1993-036BVH", "EPOCH": "2025-12-22T22:40:43.832064", "MEAN_MOTION": 14.41012867, "ECCENTRICITY": 0.0024226, "INCLINATION": 74.0542, "RA_OF_ASC_NODE": 241.6627, "ARG_OF_PERICENTER": 301.6837, "MEAN_ANOMALY": 73.6667, "EPHEMERIS_TYPE": 0, "CLASSIFICATION_TYPE": "U", "NORAD_CAT_ID": 40228, "ELEMENT_SET_NO": 999, "REV_AT_EPOCH": 59068, "BSTAR": 0.0002585, "MEAN_MOTION_DOT": 8.07e-06, "MEAN_MOTION_DDOT": 0}, "tle": {"line1": "1 40228U 93036BVH 25356.94495176  .00000807  00000+0  25850-3 0  9990", "line2": "2 40228  74.0542 241.6627 0024226 301.6837  73.6667 14.41012867590689"}}, "geometry": {"type": "Point", "coordinates": [67.40069183892693, -25.92032311589415]}}]}